{"type": "FeatureCollection", "features": [ {"type": "Feature", "properties": {"norad_id": 66664, "name": "SOYUZ-MS 28", "group": "last-30-days", "lat": 50.38791362264762, "lon": -76.30060545969438, "alt_km": 412.44026756171206, "timestamp": "2025-12-05T18:53:12.098375+00:00", "meta": {"OBJECT_NAME": "SOYUZ-MS 28", "OBJECT_ID": "2025-275A", "EPOCH": "2025-12-05T06:04:12.236160", "MEAN_MOTION": 15.49328184, "ECCENTRICITY": 0.00035858, "INCLINATION": 51.6297, "RA_OF_ASC_NODE": 179.5463, "ARG_OF_PERICENTER": 206.2517, "MEAN_ANOMALY": 153.8291, "EPHEMERIS_TYPE": 0, "CLASSIFICATION_TYPE": "U", "NORAD_CAT_ID": 66664, "ELEMENT_SET_NO": 999, "REV_AT_EPOCH": 128, "BSTAR": 0.0002719745, "MEAN_MOTION_DOT": 0.00014736, "MEAN_MOTION_DDOT": 0}, "tle": {"line1": "1 66664U 25275A   25339.25291940  .00014736  00000+0  27197-3 0  9992", "line2": "2 66664  51.6297 179.5463 0003585 206.2517 153.8291 15.49328184  1284"}}, "geometry": {"type": "Point", "coordinates": [-76.30060545969438, 50.38791362264762]}}, {"type": "Feature", "properties": {"norad_id": 66820, "name": "KOMPSAT-7", "group": "last-30-days", "lat": -58.89098151789452, "lon": -61.34337273681394, "alt_km": 575.6501708483047, "timestamp": "2025-12-05T18:53:12.098390+00:00", "meta": {"OBJECT_NAME": "KOMPSAT-7", "OBJECT_ID": "2025-279A", "EPOCH": "2025-12-01T20:35:16.060992", "MEAN_MOTION": 14.98310631, "ECCENTRICITY": 0.00097501, "INCLINATION": 97.6394, "RA_OF_ASC_NODE": 281.9587, "ARG_OF_PERICENTER": 255.3935, "MEAN_ANOMALY": 104.6207, "EPHEMERIS_TYPE": 0, "CLASSIFICATION_TYPE": "U", "NORAD_CAT_ID": 66820, "ELEMENT_SET_NO": 999, "REV_AT_EPOCH": 2, "BSTAR": 8.4407298e-05, "MEAN_MOTION_DOT": 9.47e-06, "MEAN_MOTION_DDOT": 0}, "tle": {"line1": "1 66820U 25279A   25335.85782478  .00000947  00000+0  84407-4 0  9990", "line2": "2 66820  97.6394 281.9587 0009750 255.3935 104.6207 14.98310631    23"}}, "geometry": {"type": "Point", "coordinates": [-61.34337273681394, -58.89098151789452]}}, {"type": "Feature", "properties": {"norad_id": 66877, "name": "ZQ-3 R/B", "group": "last-30-days", "lat": 8.407013351990203, "lon": 89.46692913595405, "alt_km": 1324.723391114736, "timestamp": "2025-12-05T18:53:12.098400+00:00", "meta": {"OBJECT_NAME": "ZQ-3 R/B", "OBJECT_ID": "2025-282A", "EPOCH": "2025-12-05T07:10:51.533184", "MEAN_MOTION": 14.40698574, "ECCENTRICITY": 0.08574754, "INCLINATION": 56.9554, "RA_OF_ASC_NODE": 85.7648, "ARG_OF_PERICENTER": 207.271, "MEAN_ANOMALY": 148.0712, "EPHEMERIS_TYPE": 0, "CLASSIFICATION_TYPE": "U", "NORAD_CAT_ID": 66877, "ELEMENT_SET_NO": 999, "REV_AT_EPOCH": 31, "BSTAR": 0.00029209984, "MEAN_MOTION_DOT": 0.01317241, "MEAN_MOTION_DDOT": 7.178412e-06}, "tle": {"line1": "1 66877U 25282A   25339.29920756  .01317241  71784-5  29210-3 0  9993", "line2": "2 66877  56.9554  85.7648 0857475 207.2710 148.0712 14.40698574   318"}}, "geometry": {"type": "Point", "coordinates": [89.46692913595405, 8.407013351990203]}}, {"type": "Feature", "properties": {"norad_id": 66906, "name": "1998-067XS", "group": "last-30-days", "lat": 48.017439826263114, "lon": -64.81730784883072, "alt_km": 408.7268351161392, "timestamp": "2025-12-05T18:53:12.098410+00:00", "meta": {"OBJECT_NAME": "1998-067XS", "OBJECT_ID": "1998-067XS", "EPOCH": "2025-12-04T20:45:28.746720", "MEAN_MOTION": 15.49986178, "ECCENTRICITY": 0.00041746, "INCLINATION": 51.6291, "RA_OF_ASC_NODE": 181.4578, "ARG_OF_PERICENTER": 168.934, "MEAN_ANOMALY": 191.1741, "EPHEMERIS_TYPE": 0, "CLASSIFICATION_TYPE": "U", "NORAD_CAT_ID": 66906, "ELEMENT_SET_NO": 999, "REV_AT_EPOCH": 39, "BSTAR": 0.000624818, "MEAN_MOTION_DOT": 0.00035352, "MEAN_MOTION_DDOT": 0}, "tle": {"line1": "1 66906U 98067XS  25338.86491605  .00035352  00000+0  62482-3 0  9999", "line2": "2 66906  51.6291 181.4578 0004174 168.9340 191.1741 15.49986178   398"}}, "geometry": {"type": "Point", "coordinates": [-64.81730784883072, 48.017439826263114]}}, {"type": "Feature", "properties": {"norad_id": 66907, "name": "1998-067XT", "group": "last-30-days", "lat": 47.45068521117239, "lon": -62.79781129291903, "alt_km": 408.35231156407553, "timestamp": "2025-12-05T18:53:12.098422+00:00", "meta": {"OBJECT_NAME": "1998-067XT", "OBJECT_ID": "1998-067XT", "EPOCH": "2025-12-04T14:33:58.780512", "MEAN_MOTION": 15.5013594, "ECCENTRICITY": 0.00051159, "INCLINATION": 51.6278, "RA_OF_ASC_NODE": 182.735, "ARG_OF_PERICENTER": 181.696, "MEAN_ANOMALY": 178.4012, "EPHEMERIS_TYPE": 0, "CLASSIFICATION_TYPE": "U", "NORAD_CAT_ID": 66907, "ELEMENT_SET_NO": 999, "REV_AT_EPOCH": 35, "BSTAR": 0.0016214223, "MEAN_MOTION_DOT": 0.00093671, "MEAN_MOTION_DDOT": 0}, "tle": {"line1": "1 66907U 98067XT  25338.60693033  .00093671  00000+0  16214-2 0  9990", "line2": "2 66907  51.6278 182.7350 0005115 181.6960 178.4012 15.50135940   352"}}, "geometry": {"type": "Point", "coordinates": [-62.79781129291903, 47.45068521117239]}}, {"type": "Feature", "properties": {"norad_id": 66908, "name": "1998-067XU", "group": "last-30-days", "lat": 47.253931934622734, "lon": -62.13076809508187, "alt_km": 408.2140668444954, "timestamp": "2025-12-05T18:53:12.098433+00:00", "meta": {"OBJECT_NAME": "1998-067XU", "OBJECT_ID": "1998-067XU", "EPOCH": "2025-12-04T23:50:53.483712", "MEAN_MOTION": 15.50281808, "ECCENTRICITY": 0.00055383, "INCLINATION": 51.6288, "RA_OF_ASC_NODE": 180.8149, "ARG_OF_PERICENTER": 185.3725, "MEAN_ANOMALY": 174.7205, "EPHEMERIS_TYPE": 0, "CLASSIFICATION_TYPE": "U", "NORAD_CAT_ID": 66908, "ELEMENT_SET_NO": 999, "REV_AT_EPOCH": 41, "BSTAR": 0.0015643981, "MEAN_MOTION_DOT": 0.00090804, "MEAN_MOTION_DDOT": 0}, "tle": {"line1": "1 66908U 98067XU  25338.99367458  .00090804  00000+0  15644-2 0  9993", "line2": "2 66908  51.6288 180.8149 0005538 185.3725 174.7205 15.50281808   413"}}, "geometry": {"type": "Point", "coordinates": [-62.13076809508187, 47.253931934622734]}}, {"type": "Feature", "properties": {"norad_id": 66909, "name": "1998-067XV", "group": "last-30-days", "lat": 47.24114942247848, "lon": -62.087479195210015, "alt_km": 408.2761112033768, "timestamp": "2025-12-05T18:53:12.098443+00:00", "meta": {"OBJECT_NAME": "1998-067XV", "OBJECT_ID": "1998-067XV", "EPOCH": "2025-12-04T23:50:52.274976", "MEAN_MOTION": 15.50264508, "ECCENTRICITY": 0.0005497, "INCLINATION": 51.629, "RA_OF_ASC_NODE": 180.8148, "ARG_OF_PERICENTER": 185.5625, "MEAN_ANOMALY": 174.5303, "EPHEMERIS_TYPE": 0, "CLASSIFICATION_TYPE": "U", "NORAD_CAT_ID": 66909, "ELEMENT_SET_NO": 999, "REV_AT_EPOCH": 41, "BSTAR": 0.0015898, "MEAN_MOTION_DOT": 0.00092243, "MEAN_MOTION_DDOT": 0}, "tle": {"line1": "1 66909U 98067XV  25338.99366059  .00092243  00000+0  15898-2 0  9990", "line2": "2 66909  51.6290 180.8148 0005497 185.5625 174.5303 15.50264508   416"}}, "geometry": {"type": "Point", "coordinates": [-62.087479195210015, 47.24114942247848]}}, {"type": "Feature", "properties": {"norad_id": 66910, "name": "1998-067XW", "group": "last-30-days", "lat": 45.73615803374358, "lon": -57.513366219886514, "alt_km": 406.39121598736347, "timestamp": "2025-12-05T18:53:12.098452+00:00", "meta": {"OBJECT_NAME": "1998-067XW", "OBJECT_ID": "1998-067XW", "EPOCH": "2025-12-05T01:22:59.154240", "MEAN_MOTION": 15.50553772, "ECCENTRICITY": 0.0006416, "INCLINATION": 51.6287, "RA_OF_ASC_NODE": 180.4926, "ARG_OF_PERICENTER": 172.5367, "MEAN_ANOMALY": 187.5719, "EPHEMERIS_TYPE": 0, "CLASSIFICATION_TYPE": "U", "NORAD_CAT_ID": 66910, "ELEMENT_SET_NO": 999, "REV_AT_EPOCH": 42, "BSTAR": 0.0014713, "MEAN_MOTION_DOT": 0.00086166, "MEAN_MOTION_DDOT": 0}, "tle": {"line1": "1 66910U 98067XW  25339.05762910  .00086166  00000+0  14713-2 0  9998", "line2": "2 66910  51.6287 180.4926 0006416 172.5367 187.5719 15.50553772   425"}}, "geometry": {"type": "Point", "coordinates": [-57.513366219886514, 45.73615803374358]}}, {"type": "Feature", "properties": {"norad_id": 66911, "name": "1998-067XX", "group": "last-30-days", "lat": 45.613872397896074, "lon": -57.174248533795286, "alt_km": 406.24681380015045, "timestamp": "2025-12-05T18:53:12.098462+00:00", "meta": {"OBJECT_NAME": "1998-067XX", "OBJECT_ID": "1998-067XX", "EPOCH": "2025-12-05T01:22:57.118656", "MEAN_MOTION": 15.50597834, "ECCENTRICITY": 0.0006353, "INCLINATION": 51.6287, "RA_OF_ASC_NODE": 180.4927, "ARG_OF_PERICENTER": 172.5612, "MEAN_ANOMALY": 187.5473, "EPHEMERIS_TYPE": 0, "CLASSIFICATION_TYPE": "U", "NORAD_CAT_ID": 66911, "ELEMENT_SET_NO": 999, "REV_AT_EPOCH": 41, "BSTAR": 0.001631828, "MEAN_MOTION_DOT": 0.00095888, "MEAN_MOTION_DDOT": 0}, "tle": {"line1": "1 66911U 98067XX  25339.05760554  .00095888  00000+0  16318-2 0  9995", "line2": "2 66911  51.6287 180.4927 0006353 172.5612 187.5473 15.50597834   413"}}, "geometry": {"type": "Point", "coordinates": [-57.174248533795286, 45.613872397896074]}}, {"type": "Feature", "properties": {"norad_id": 66912, "name": "1998-067XY", "group": "last-30-days", "lat": 47.6764498709433, "lon": -63.58474552231874, "alt_km": 408.68465578780433, "timestamp": "2025-12-05T18:53:12.098472+00:00", "meta": {"OBJECT_NAME": "1998-067XY", "OBJECT_ID": "1998-067XY", "EPOCH": "2025-12-04T20:45:22.504320", "MEAN_MOTION": 15.50112041, "ECCENTRICITY": 0.00053164, "INCLINATION": 51.6281, "RA_OF_ASC_NODE": 181.4549, "ARG_OF_PERICENTER": 183.1842, "MEAN_ANOMALY": 176.9114, "EPHEMERIS_TYPE": 0, "CLASSIFICATION_TYPE": "U", "NORAD_CAT_ID": 66912, "ELEMENT_SET_NO": 999, "REV_AT_EPOCH": 38, "BSTAR": 0.0012051689, "MEAN_MOTION_DOT": 0.00069233, "MEAN_MOTION_DDOT": 0}, "tle": {"line1": "1 66912U 98067XY  25338.86484380  .00069233  00000+0  12052-2 0  9990", "line2": "2 66912  51.6281 181.4549 0005316 183.1842 176.9114 15.50112041   383"}}, "geometry": {"type": "Point", "coordinates": [-63.58474552231874, 47.6764498709433]}}]}